P/2016 P5 (COIAS),e,7.0390,185.3634,33.6676,4.699347,0.0967493,0.05746418,96.1226,02/07.0/2026,2000,g 13.2,4.0
# From MPEC 2024-H50
C/2016 Q2 (PANSTARRS),h,05/11.0000/2021,109.3111,322.3536,84.5148,1.001704,7.080116,2000,6.0,4.0
# From MPEC 2023-J95
C/2016 Q4 (Kowalski),e,7.2365,271.2779,100.0295,17.04794,0.0140022,0.58198452,41.0116,02/07.0/2026,2000,g  7.0,4.0
# From MPEC 2021-N06
C/2016 R2 (PANSTARRS),e,58.3786,80.4718,33.1797,578.6181,0.0000708,0.99551552,0.0000,05/12.0315/2018,2000,g  7.0,4.0
# From MPEC 2022-K19
P/2016 R4 (Gibbs),e,10.8607,168.2552,174.0658,5.339767,0.0798768,0.47447077,278.7952,02/07.0/2026,2000,g 12.5,4.0
# From MPEC 2021-P47
C/2016 X1 (Lemmon),e,26.4662,256.3080,224.6618,3606,0.0000046,0.99790201,0.0000,05/01.7096/2019,2000,g  6.0,4.0
# From MPC114598
C/2017 AB5 (PANSTARRS),h,02/19.8606/2018,32.4414,42.6228,78.4006,1.000463,9.212215,2000,5.5,4.0
# From MPEC 2022-OB6
C/2017 B3 (LINEAR),e,54.2498,2.2813,284.7076,2717,0.0000070,0.99855329,0.0000,01/29.7830/2019,2000,g  6.0,4.0
# From MPC103847
P/2017 B4 (PANSTARRS),e,20.0584,121.4578,11.0197,4.410520,0.1064068,0.36495152,359.9130,01/05.0/2017,2000,g 14.5,4.0
# From MPEC 2022-OB6
P/2017 D1 (Fuls),e,20.7716,82.1850,8.1364,4.820138,0.0931354,0.43778004,326.6490,02/07.0/2026,2000,g 14.0,4.0
# From MPEC 2022-O08
C/2017 E3 (PANSTARRS),h,06/06.7832/2017,70.6667,220.7603,334.1502,1.004245,5.900534,2000,6.5,4.0
# From MPC114598
C/2017 F2 (PANSTARRS),h,11/26.6006/2017,42.5391,38.6152,134.7865,1.001886,6.899881,2000,7.5,4.0
# From MPC184408
P/2017 FL36 (PANSTARRS),e,15.6879,313.4417,90.6198,2.928356,0.1966836,0.03321901,35.4881,02/07.0/2026,2000,g 14.7,4.0
# From MPC115882
C/2017 K1 (PANSTARRS),e,154.0261,225.6477,4.1440,13254,0.0000006,0.99945193,0.0000,03/12.5128/2018,2000,g  7.0,4.0
# From MPEC 2026-A90
C/2017 K2 (PANSTARRS),e,87.6390,88.2216,236.1522,1231,0.0000228,0.99853722,0.0000,12/18.0595/2022,2000,g  1.5,4.0
# From MPEC 2021-P47
C/2017 K5 (PANSTARRS),h,03/24.7719/2020,82.2800,102.4607,171.8810,1.002406,7.672157,2000,5.0,4.0
# From MPEC 2022-OB6
C/2017 M4 (ATLAS),e,105.6385,65.9885,167.3556,36785,0.0000001,0.99991214,0.0000,01/17.4041/2019,2000,g  6.0,4.0
# From MPC118841
C/2017 M5 (TOTAS),h,05/30.7804/2018,15.8702,216.3096,92.7813,1.002024,6.008960,2000,6.5,4.0
# From MPC114599
P/2017 P1 (PANSTARRS),e,7.6880,221.4696,122.6913,7.919637,0.0442228,0.30853073,123.5214,02/07.0/2026,2000,g 10.0,4.0
# From MPEC 2020-SI8
C/2017 S7 (Lemmon),e,124.2293,262.6519,187.7549,98847,0.0000000,0.99992269,0.0000,05/25.6399/2017,2000,g  7.0,4.0
# From MPEC 2022-OB6
P/2017 S8 (PANSTARRS),e,29.8419,191.4940,254.9517,2.778350,0.2128254,0.39114738,263.8949,02/07.0/2026,2000,g 16.0,4.0
# From MPEC 2024-A43
C/2017 T2 (PANSTARRS),e,57.2666,64.4056,92.7744,1711,0.0000139,0.99906376,0.0000,05/06.5863/2020,2000,g  5.0,4.0
# From MPC115882
P/2017 TW13 (Lemmon),e,44.8919,322.0883,120.0625,7.139172,0.0516693,0.71045115,143.9033,02/07.0/2026,2000,g 15.0,2.0
# From MPEC 2022-K19
P/2017 U3 (PANSTARRS),e,15.9258,165.0477,296.6094,4.918539,0.0903545,0.10094100,224.5494,02/07.0/2026,2000,g 11.0,4.0
# From MPEC 2023-CD7
C/2017 U4 (PANSTARRS),e,158.2033,245.9312,159.2361,12186,0.0000007,0.99936372,0.0000,09/22.4575/2018,2000,g  7.0,4.0
# From MPEC 2023-A50
C/2017 U7 (PANSTARRS),h,09/16.1235/2019,142.6396,276.3210,326.3654,1.002524,6.413264,2000,8.3,2.0
# From MPC114601
P/2017 W3 (Gibbs),e,18.1969,210.0298,327.7907,7.816530,0.0451007,0.50740257,130.8556,02/07.0/2026,2000,g 10.5,4.0
# From MPEC 2024-JU4
C/2018 A6 (Gibbs),e,77.1896,340.4871,264.2346,14.99140,0.0169801,0.79893841,40.8112,02/07.0/2026,2000,g  9.0,4.0
# From MPC114602
P/2018 H2 (PANSTARRS),e,7.4104,67.9851,119.0318,4.416313,0.1061975,0.53976199,317.0901,02/07.0/2026,2000,g 16.6,2.0
# From MPEC 2021-R75
C/2018 KJ3 (Lemmon),e,136.6218,91.6947,217.5029,640.8027,0.0000608,0.99435612,0.0000,09/07.9276/2019,2000,g 12.2,2.0
# From MPEC 2022-YN2
C/2018 N2 (ASASSN),h,11/12.0555/2019,77.4543,24.5495,25.3400,1.002096,3.137327,2000,6.0,4.0
# From MPC114603
P/2018 P4 (PANSTARRS),e,23.0680,353.1620,8.5085,6.697601,0.0568624,0.44854930,150.7300,02/07.0/2026,2000,g 12.0,4.0
# From MPEC 2022-QC6
C/2018 S2 (TESS),e,64.1135,85.1116,290.9832,14.36820,0.0180967,0.61741128,47.9881,02/07.0/2026,2000,g  7.5,4.0
# From MPEC 2023-D54
C/2018 S3 (TESS),e,78.3924,25.0498,263.8993,24715,0.0000003,0.99967558,0.0000,06/24.1724/2016,2000,g  6.0,4.0
# From MPC184408
C/2018 U1 (Lemmon),e,108.3268,75.5051,180.3026,12282,0.0000007,0.99959427,0.0000,11/01.7095/2021,2000,g  5.0,4.0
# From MPC181178
P/2018 VN2 (Leonard),e,18.2552,226.4316,138.9303,4.060553,0.1204554,0.47801710,337.1406,02/07.0/2026,2000,g 15.0,4.0
# From MPEC 2023-M14
A/2018 W3,e,104.8320,251.6759,313.8158,683.3616,0.0000552,0.99373982,0.0000,04/13.1999/2021,2000,g 10.5,2.0
# From MPC114605
P/2018 Y2 (Africano),e,11.6972,297.1080,162.4445,7.459855,0.0483736,0.47992673,125.2766,02/07.0/2026,2000,g 11.5,4.0
# From MPEC 2021-P47
P/2019 A2 (ATLAS),e,14.8773,139.3562,324.0045,5.710220,0.0722312,0.38333274,190.0061,02/07.0/2026,2000,g 10.5,4.0
# From MPEC 2022-M21
P/2019 A3 (PANSTARRS),e,15.3573,31.1719,325.5499,3.143028,0.1768812,0.26828542,124.9400,02/07.0/2026,2000,g 16.0,4.0
# From MPEC 2022-L66
P/2019 A4 (PANSTARRS),e,13.3064,119.3541,343.3507,2.614057,0.2332015,0.08751180,249.4121,02/07.0/2026,2000,g 15.0,4.0
# From MPEC 2021-P47
C/2019 A5 (PANSTARRS),e,67.5554,146.4891,355.8837,21.53065,0.0098655,0.70665764,24.0363,02/07.0/2026,2000,g  9.5,4.0
# From MPC115885
P/2019 B2 (Groeller),e,16.9467,175.5873,0.4702,3.933358,0.1263452,0.35772900,311.7626,02/07.0/2026,2000,g 14.5,4.0
# From MPEC 2024-JU4
C/2019 B3 (PANSTARRS),e,66.6273,358.3973,263.9983,3135,0.0000056,0.99782140,0.0000,01/19.2942/2021,2000,g  5.5,4.0
# From MPEC 2026-A90
C/2019 E3 (ATLAS),e,84.3256,347.1819,280.7250,6503,0.0000019,0.99841406,0.0000,11/15.7982/2023,2000,g  2.5,4.0
# From MPEC 2024-GJ3
C/2019 F1 (ATLAS-Africano),e,54.2767,38.6671,251.2705,34176,0.0000002,0.99989445,0.0000,06/20.7626/2021,2000,g  5.5,4.0
# From MPC114607
P/2019 GG21 (PANSTARRS),e,6.0805,340.5658,208.5879,7.468458,0.0482900,0.47171342,119.0441,02/07.0/2026,2000,g 12.0,4.0
# From MPEC 2024-GJ3
C/2019 K7 (Smith),e,103.4639,308.0486,27.3186,37591,0.0000001,0.99988104,0.0000,06/16.6335/2020,2000,g  6.0,4.0
# From MPEC 2025-W75
P/2019 LD2 (ATLAS),e,11.6786,177.9647,116.0774,5.151842,0.0842869,0.13469215,185.9781,02/07.0/2026,2000,g 12.0,4.0
# From MPC185656
C/2019 L3 (ATLAS),h,01/10.2204/2022,48.3471,290.7094,171.8001,1.003430,3.561689,2000,4.5,4.0
# From MPEC 2025-W75
P/2019 LM4 (Palomar),e,36.4117,72.8729,68.2287,5.701088,0.0724048,0.58646025,175.4267,02/07.0/2026,2000,g 12.9,4.0
# From MPEC 2023-JA2
C/2019 M4 (TESS),e,65.7067,52.6352,260.3205,23345,0.0000003,0.99960633,0.0000,09/08.5867/2019,2000,g  5.0,4.0
# From MPEC 2023-C45
C/2019 N1 (ATLAS),e,82.5853,13.4856,193.3398,941.0402,0.0000341,0.99819052,0.0000,11/30.4194/2020,2000,g  7.5,4.0
# From MPEC 2023-CD8
A/2019 N2,e,89.3210,276.2242,347.0197,1031,0.0000298,0.99812052,0.0000,08/22.3005/2019,2000,g 12.5,2.0
# From MPEC 2025-W75
C/2019 NJ3 (Lemmon),h,10/21.9732/2020,99.3103,142.4922,246.8763,1.001704,4.362199,2000,12.0,4.0
# From MPC185656
C/2019 O2 (PANSTARRS),e,93.2862,48.2657,129.5633,58.84156,0.0021836,0.83548829,2.2668,02/07.0/2026,2000,g  5.0,4.0
# From MPC182878
C/2019 O3 (Palomar),h,03/07.5347/2021,89.7908,300.4832,60.0774,1.001815,8.820173,2000,3.5,4.0
# From MPEC 2024-EF7
C/2019 Q1 (Lemmon),h,07/22.5211/2020,155.7112,42.4751,56.2392,1.002523,4.999544,2000,8.5,4.0
# From MPC117072
C/2019 Q3 (PANSTARRS),h,08/19.0637/2018,65.5885,151.4626,152.6695,1.000683,7.263601,2000,8.5,4.0
# From MPC117072
P/2019 S2 (PANSTARRS),e,10.4636,93.1793,216.8548,4.748245,0.0952587,0.20471758,242.8709,02/07.0/2026,2000,g 13.5,4.0
# From MPEC 2022-CN4
P/2019 S3 (PANSTARRS),e,8.6945,150.1402,213.1032,3.413483,0.1562815,0.47060733,7.7852,02/07.0/2026,2000,g 18.3,4.0
# From MPEC 2023-N01
A/2019 T1,e,120.7972,6.9182,90.9479,38.67057,0.0040986,0.88950059,7.5795,02/07.0/2026,2000,g 13.0,2.0
# From MPEC 2023-R20
C/2019 T2 (Lemmon),e,111.3409,155.6511,239.3663,2679,0.0000071,0.99901370,0.0000,04/22.2270/2021,2000,g  9.0,4.0
# From MPEC 2023-UR6
C/2019 T3 (ATLAS),e,121.8877,139.5506,112.4922,5968,0.0000021,0.99900252,0.0000,03/05.0391/2021,2000,g  6.8,4.0
# From MPC188408
C/2019 T4 (ATLAS),e,53.6247,199.8773,351.1150,896.4137,0.0000367,0.99527386,0.0000,06/08.7592/2022,2000,g  5.0,4.0
# From MPC118096
P/2019 U4 (PANSTARRS),e,11.6958,199.9944,181.0994,3.517877,0.1493768,0.47561162,347.9665,02/07.0/2026,2000,g 19.0,4.0
# From MPEC 2026-A90
C/2019 U5 (PANSTARRS),e,113.5151,2.5955,181.4458,66644,0.0000001,0.99994561,0.0000,03/29.2919/2023,2000,g  4.5,4.0
# From MPEC 2022-L66
P/2019 V2 (Groeller),e,11.8077,189.1153,335.6637,7.495313,0.0480308,0.33213234,93.0862,02/07.0/2026,2000,g 10.0,4.0
# From MPEC 2023-A50
P/2019 W1 (PANSTARRS),e,23.4632,35.3486,18.9256,4.548416,0.1016047,0.26705932,250.1932,02/07.0/2026,2000,g 12.9,4.0
# From MPEC 2021-P47
P/2019 X1 (Pruyne),e,10.2425,43.6712,37.0540,6.181330,0.0641329,0.30359087,153.2135,02/07.0/2026,2000,g 10.4,4.0
# From MPEC 2020-C98
P/2019 X2 (Pan-STARRS),e,15.8950,250.8230,213.5526,3.633115,0.1423263,0.50051050,319.9617,02/07.0/2026,2000,g 18.0,4.0
# From MPEC 2023-A50
C/2020 A3 (ATLAS),e,146.6141,120.7956,268.2183,3360,0.0000051,0.99828727,0.0000,06/25.9296/2019,2000,g  8.0,4.0
# From MPEC 2023-KD6
P/2020 B4 (Sheppard),e,11.6015,185.9316,342.1415,7.976518,0.0437506,0.19319336,67.3427,02/07.0/2026,2000,g 10.5,4.0
# From MPEC 2025-X35
C/2020 F2 (ATLAS),h,07/11.9880/2022,163.5901,250.2946,48.2231,1.001620,8.814031,2000,4.5,4.0
# From MPEC 2024-UQ8
C/2020 F5 (MASTER),e,52.2435,350.5656,310.5700,162.0669,0.0004777,0.97331767,0.0000,03/15.8588/2021,2000,g  6.5,3.2
# From MPEC 2024-A43
C/2020 F7 (Lemmon),e,93.9943,321.8122,228.0090,592.9077,0.0000683,0.99099952,0.0000,11/14.1669/2021,2000,g  7.0,4.0
# From MPC184409
